H1 CPF 01  gfz 2021 05 16 12  6362 terrasarx 
H2 0702601  6201 31698    2021 05 16 12 59 42 2021 05 21 00 00 42   120 1 1  0 0 0
H9
10 0 59354  82062.000000  0   -2319598.725   5656975.733   3165210.321
10 0 59354  82182.000000  0   -2280948.052   6062213.880   2337892.514
10 0 59354  82302.000000  0   -2196259.539   6360365.310   1469399.854
10 0 59354  82422.000000  0   -2068943.694   6545448.944    575028.908
10 0 59354  82542.000000  0   -1903249.256   6613549.648   -329467.722
10 0 59354  82662.000000  0   -1704150.918   6562902.769  -1228167.409
10 0 59354  82782.000000  0   -1477221.523   6393935.090  -2105269.516
10 0 59354  82902.000000  0   -1228491.922   6109256.513  -2945382.194
10 0 59354  83022.000000  0    -964304.242   5713609.678  -3733795.215
10 0 59354  83142.000000  0    -691161.927   5213780.488  -4456738.165
10 0 59354  83262.000000  0    -415579.974   4618469.336  -5101618.398
10 0 59354  83382.000000  0    -143938.392   3938128.791  -5657234.269
10 0 59354  83502.000000  0     117657.944   3184770.288  -6113961.842
10 0 59354  83622.000000  0     363509.471   2371743.984  -6463910.809
10 0 59354  83742.000000  0     588439.332   1513498.861  -6701048.671
10 0 59354  83862.000000  0     787897.209    625326.909  -6821295.061
10 0 59354  83982.000000  0     958047.202   -276905.922  -6822584.293
10 0 59354  84102.000000  0    1095838.747  -1177037.936  -6704896.457
10 0 59354  84222.000000  0    1199059.560  -2058893.666  -6470255.903
10 0 59354  84342.000000  0    1266370.650  -2906566.167  -6122700.730
10 0 59354  84462.000000  0    1297323.132  -3704699.340  -5668222.863
10 0 59354  84582.000000  0    1292354.736  -4438766.081  -5114674.570
10 0 59354  84702.000000  0    1252768.139  -5095333.729  -4471642.946
10 0 59354  84822.000000  0    1180690.254  -5662315.391  -3750295.735
10 0 59354  84942.000000  0    1079012.328  -6129201.819  -2963196.211
10 0 59354  85062.000000  0     951313.039  -6487267.209  -2124090.698
10 0 59354  85182.000000  0     801765.871  -6729744.999  -1247671.212
10 0 59354  85302.000000  0     635031.813  -6851967.639   -349316.444
10 0 59354  85422.000000  0     456140.440  -6851465.524    555182.929
10 0 59354  85542.000000  0     270362.431  -6728023.406   1449908.503
10 0 59354  85662.000000  0      83076.611  -6483692.241   2319103.212
10 0 59354  85782.000000  0    -100365.041  -6122754.496   3147459.012
10 0 59354  85902.000000  0    -274771.025  -5651642.217   3920394.810
10 0 59354  86022.000000  0    -435239.333  -5078813.600   4624316.435
10 0 59354  86142.000000  0    -577278.098  -4414591.991   5246857.893
10 0 59354  86262.000000  0    -696914.907  -3670970.064   5777097.723
10 0 59354  86382.000000  0    -790792.909  -2861383.323   6205748.293
99
